CCSDS_OEM_VERS = 2.0
CREATION_DATE = 2024-10-05T19:00:55.828000000
ORIGINATOR = NONE

META_START
OBJECT_NAME = _SCPACE_OEM
OBJECT_ID = 1
CENTER_NAME = EARTH
REF_FRAME = EME2000
TIME_SYSTEM = UTC
START_TIME = 2024-10-04T08:00:00.000000000
STOP_TIME = 2024-10-05T16:00:00.000000000
INTERPOLATION = LAGRANGE
INTERPOLATION_DEGREE = 8
META_STOP

2024-10-04T14:39:00.000000000  9.146037125677631e+02 -6.264511792782959e+02 -6.972995680279907e+03 -6.552765211925836e+00 -3.614753595929799e+00 -5.346193602175267e-01
2024-10-04T14:40:00.000000000  5.198492614957941e+02 -8.419202076536252e+02 -6.990877495776764e+03 -6.601263481270808e+00 -3.565116989809832e+00 -6.124102456233598e-02
2024-10-04T14:41:00.000000000  1.229871622857162e+02 -1.053976235497374e+03 -6.980339590966336e+03 -6.622995604158744e+00 -3.501024278139244e+00  4.123873306243217e-01
2024-10-04T14:42:00.000000000 -2.743734381738018e+02 -1.261759292279742e+03 -6.941423982915276e+03 -6.617873697377988e+00 -3.422731302371274e+00  8.843659734799644e-01
2024-10-04T14:43:00.000000000 -6.706211939198289e+02 -1.464426362338839e+03 -6.874286511086906e+03 -6.585914179650129e+00 -3.330548740887833e+00  1.352801942922581e+00
2024-10-04T14:44:00.000000000 -1.064148933788327e+03 -1.661154740417209e+03 -6.779196237079153e+03 -6.527237392336862e+00 -3.224841198167084e+00  1.815814659869821e+00
2024-10-04T14:45:00.000000000 -1.453359886329388e+03 -1.851145230134099e+03 -6.656534508288580e+03 -6.442068042630619e+00 -3.106026839524871e+00  2.271542313269129e+00
2024-10-04T14:46:00.000000000 -1.836673862871607e+03 -2.033625297495397e+03 -6.506793672544816e+03 -6.330735162152116e+00 -2.974576065503016e+00  2.718149423015293e+00
2024-10-04T14:47:00.000000000 -2.212533610488795e+03 -2.207852169001081e+03 -6.330574992180316e+03 -6.193670856521704e+00 -2.831009344534989e+00  3.153834604215888e+00
2024-10-04T14:48:00.000000000 -2.579410502287242e+03 -2.373115588718072e+03 -6.128587152567745e+03 -6.031408179659912e+00 -2.675895355618370e+00  3.576835783989989e+00
2024-10-04T14:49:00.000000000 -2.935811158766473e+03 -2.528740959867598e+03 -5.901642909915156e+03 -5.844580053797074e+00 -2.509849501539694e+00  3.985436726565148e+00
2024-10-04T14:50:00.000000000 -3.280283514644293e+03 -2.674092114753120e+03 -5.650656014361292e+03 -5.633918647992934e+00 -2.333532195704145e+00  4.377973804300613e+00
2024-10-04T14:51:00.000000000 -3.611421701563776e+03 -2.808573566924176e+03 -5.376639074168113e+03 -5.400254100082993e+00 -2.147646912500427e+00  4.752842398398878e+00
2024-10-04T14:52:00.000000000 -3.927872550698559e+03 -2.931633295516122e+03 -5.080699057290734e+03 -5.144510958984077e+00 -1.952937126893083e+00  5.108504954924845e+00
2024-10-04T14:53:00.000000000 -4.228341787688420e+03 -3.042765197333621e+03 -4.764031995939767e+03 -4.867704362470575e+00 -1.750183316837768e+00  5.443497786552791e+00
2024-10-04T14:54:00.000000000 -4.511597832624944e+03 -3.141510773132383e+03 -4.427920858454217e+03 -4.570938414070397e+00 -1.540201392003755e+00  5.756434937234534e+00
2024-10-04T14:55:00.000000000 -4.776478750135371e+03 -3.227461708664009e+03 -4.073727642848940e+03 -4.255400857474407e+00 -1.323838347543301e+00  6.046017628278046e+00
2024-10-04T14:56:00.000000000 -5.021895702413254e+03 -3.300261267065249e+03 -3.702890654520465e+03 -3.922359919876724e+00 -1.101970208058592e+00  6.311037760943838e+00
2024-10-04T14:57:00.000000000 -5.246838639204994e+03 -3.359606050430440e+03 -3.316916950739717e+03 -3.573158909554063e+00 -8.754980156426136e-01  6.550385150397013e+00
2024-10-04T14:58:00.000000000 -5.450379914923275e+03 -3.405247408589268e+03 -2.917378011865853e+03 -3.209212201074623e+00 -6.453447559585241e-01  6.763052296018212e+00
2024-10-04T14:59:00.000000000 -5.631678859548262e+03 -3.436992609548724e+03 -2.505902151307314e+03 -2.831998279271076e+00 -4.124506763053297e-01  6.948140227719164e+00
2024-10-04T15:00:00.000000000 -5.789985199543223e+03 -3.454705763384445e+03 -2.084168429192241e+03 -2.443054142906161e+00 -1.777698252175646e-01  7.104861996268459e+00
2024-10-04T15:01:00.000000000 -5.924642564276210e+03 -3.458308547969707e+03 -1.653899537566695e+03 -2.043969488436134e+00  5.773385487850495e-02  7.232546867906396e+00
2024-10-04T15:02:00.000000000 -6.035091418618299e+03 -3.447780661285350e+03 -1.216854741946291e+03 -1.636380146326339e+00  2.930908637466603e-01  7.330644464154108e+00
2024-10-04T15:03:00.000000000 -6.120871558366187e+03 -3.423160055388376e+03 -7.748228074064610e+02 -1.221960773329083e+00  5.273304005044709e-01  7.398727783279857e+00
2024-10-04T15:04:00.000000000 -6.181624215657658e+03 -3.384542793880524e+03 -3.296140730445736e+02 -8.024170824654817e-01  7.594847381136136e-01  7.436495440287461e+00
2024-10-04T15:05:00.000000000 -6.217093717897969e+03 -3.332082842425587e+03  1.169467060768567e+02 -3.794791500898098e-01  9.885933141788682e-01  7.443773072407813e+00
2024-10-04T15:06:00.000000000 -6.227128743528355e+03 -3.265991472638917e+03  5.630281363261712e+02  4.510569032921920e-02  1.213707154222843e+00  7.420514905657441e+00
2024-10-04T15:07:00.000000000 -6.211683174338885e+03 -3.186536487925272e+03  1.006799764184822e+03  4.695807277393224e-01  1.433893189448567e+00  7.366805225864082e+00
2024-10-04T15:08:00.000000000 -6.170816305258431e+03 -3.094041029044663e+03  1.446440326068395e+03  8.921895647971589e-01  1.648239064230693e+00  7.282858394414845e+00
2024-10-04T15:09:00.000000000 -6.104692636279101e+03 -2.988882311039018e+03  1.880145133692142e+03  1.311184329712528e+00  1.855857248964758e+00  7.169016571451489e+00
2024-10-04T15:10:00.000000000 -6.013581021201820e+03 -2.871489842133458e+03  2.306134039155608e+03  1.724832799906121e+00  2.055888900379362e+00  7.025747367230696e+00
2024-10-04T15:11:00.000000000 -5.897853590313530e+03 -2.742343725612472e+03  2.722658654125795e+03  2.131425300620424e+00  2.247507319666556e+00  6.853642402720109e+00
2024-10-04T15:12:00.000000000 -5.757984426585885e+03 -2.601972826410820e+03  3.128009285202157e+03  2.529282616591144e+00  2.429921312874858e+00  6.653414879133678e+00
2024-10-04T15:13:00.000000000 -5.594547170607949e+03 -2.450952246429618e+03  3.520522822130869e+03  2.916764064104123e+00  2.602378614948348e+00  6.425895215009391e+00
2024-10-04T15:14:00.000000000 -5.408212271330784e+03 -2.289900759025323e+03  3.898589804403158e+03  3.292273694421227e+00  2.764169029292090e+00  6.172027141268577e+00
2024-10-04T15:15:00.000000000 -5.199744771618220e+03 -2.119478638103336e+03  4.260660258723064e+03  3.654266092365826e+00  2.914627621691719e+00  5.892864683563477e+00
2024-10-04T15:16:00.000000000 -4.970000540425910e+03 -1.940384470663562e+03  4.605250879929824e+03  4.001254805886427e+00  3.053138497795554e+00  5.589566663017325e+00
2024-10-04T15:17:00.000000000 -4.719922728707602e+03 -1.753352285948464e+03  4.930950769343364e+03  4.331818619557825e+00  3.179136759710514e+00  5.263390234462415e+00
2024-10-04T15:18:00.000000000 -4.450537784729780e+03 -1.559148528389758e+03  5.236427216206086e+03  4.644606513174499e+00  3.292109692784249e+00  4.915684834948886e+00
2024-10-04T15:19:00.000000000 -4.162950892925543e+03 -1.358568735835144e+03  5.520431194448437e+03  4.938342789243293e+00  3.391598557914129e+00  4.547886787577974e+00
2024-10-04T15:20:00.000000000 -3.858341395263272e+03 -1.152434296703400e+03  5.781802288811018e+03  5.211832257398292e+00  3.477200866312859e+00  4.161513257468628e+00
2024-10-04T15:21:00.000000000 -3.537957799846940e+03 -9.415890073921572e+02  6.019473363218633e+03  5.463964908504774e+00  3.548572107840236e+00  3.758154850396400e+00
2024-10-04T15:22:00.000000000 -3.203112787917871e+03 -7.268957223847365e+02  6.232474603496671e+03  5.693719400195250e+00  3.605426395645182e+00  3.339468758360978e+00
2024-10-04T15:23:00.000000000 -2.855177302256100e+03 -5.092325049325956e+02  6.419937600401726e+03  5.900166887679161e+00  3.647537203832447e+00  2.907171850344100e+00
2024-10-04T15:24:00.000000000 -2.495575203078317e+03 -2.894892271213781e+02  6.581098603383552e+03  6.082474372434954e+00  3.674738245978344e+00  2.463033952513480e+00
2024-10-04T15:25:00.000000000 -2.125777574753896e+03 -6.856404044232484e+01  6.715301316703397e+03  6.239907558984643e+00  3.686923961203003e+00  2.008870364402058e+00
2024-10-04T15:26:00.000000000 -1.747296308819034e+03  1.526405310592524e+02  6.821999661641826e+03  6.371833115591273e+00  3.684049316087866e+00  1.546534258226469e+00
2024-10-04T15:27:00.000000000 -1.361678199264330e+03  3.732210750081705e+02  6.900759706954555e+03  6.477720856991366e+00  3.666129663437816e+00  1.077909948926975e+00
2024-10-04T15:28:00.000000000 -9.704987943016336e+02  5.922768614342037e+02  6.951261303502974e+03  6.557145573880057e+00  3.633240540047807e+00  6.049054199420146e-01
2024-10-04T15:29:00.000000000 -5.753561850821606e+02  8.089133710346174e+02  6.973299301488682e+03  6.609788102716712e+00  3.585517183127895e+00  1.294451737054760e-01
2024-10-04T15:30:00.000000000 -1.778641013782751e+02  1.022246136920326e+03  6.966784321964627e+03  6.635436540210337e+00  3.523154013105456e+00 -3.465371922624282e-01
2024-10-04T15:31:00.000000000  2.203542385181609e+02  1.231404114618065e+03  6.931743122088904e+03  6.633987168509615e+00  3.446403989681636e+00 -8.211060666042334e-01
2024-10-04T15:32:00.000000000  6.176725291657956e+02  1.435533102540674e+03  6.868318469584835e+03  6.605444744372905e+00  3.355577555408620e+00 -1.292331304407558e+00
2024-10-04T15:33:00.000000000  1.012468051582171e+03  1.633799246417977e+03  6.776768586884556e+03  6.549922402957775e+00  3.251041478640828e+00 -1.758295464585086e+00
2024-10-04T15:34:00.000000000  1.403128104238809e+03  1.825392349885477e+03  6.657466186150189e+03  6.467641603987294e+00  3.133217756951974e+00 -2.217101031762432e+00
2024-10-04T15:35:00.000000000  1.788056497791781e+03  2.009529151527917e+03  6.510897034228811e+03  6.358931447582063e+00  3.002582027987405e+00 -2.666878034232863e+00
